NOAA 15                 
1 25338U 98030A   23144.51630450  .00000263  00000+0  12747-3 0  9993
2 25338  98.6071 173.9764 0010826  29.5275 330.6515 14.26319827301884
NOAA 18                 
1 28654U 05018A   23144.41459157  .00000284  00000+0  17592-3 0  9999
2 28654  98.9097 218.9196 0015402  88.3968 271.8968 14.12939936928219
NOAA 19                 
1 33591U 09005A   23144.52684707  .00000209  00000+0  13762-3 0  9990
2 33591  99.1011 190.0739 0012967 312.3425  47.6647 14.12757793736600
METOP-B                 
1 38771U 12049A   23144.53153493  .00000166  00000+0  95773-4 0  9996
2 38771  98.6796 204.2998 0001663  96.6541  38.6737 14.21514292554182
SARAL                   
1 39086U 13009A   23143.92715850  .00000143  00000+0  69265-4 0  9998
2 39086  98.5481 329.5706 0002173  32.7535 327.3783 14.32192911535215
METOP-C                 
1 43689U 18087A   23144.47165381  .00000163  00000+0  94598-4 0  9991
2 43689  98.6841 204.3650 0003937 122.3437 237.8122 14.21507444235751
ANGELS                  
1 44876U 19092D   23143.80759693  .00005011  00000+0  22802-3 0  9993
2 44876  97.4781 328.6596 0009757 248.2752 111.7445 15.21128534189917
GAZELLE                 
1 54023U 22127A   23144.00683313  .00000173  00000+0  66070-4 0  9999
2 54023  98.3232 142.5208 0012794 334.2695  25.7857 14.41839225 32895
EOS-6 (OCEANSAT-3)      
1 54361U 22158A   23144.43141518  .00000505  00000+0  15086-3 0  9990
2 54361  98.3509 241.7276 0001355 108.5693 251.5647 14.47001263 25904
